0 CZ-4 DEB
1 27492U 99057MM  13281.16163488  .00001986  00000-0  56133-3 0  4974
2 27492 098.2681 251.2032 0100472 144.2127 273.8373 14.43773601651595
0 CZ-4 DEB
1 27492U 99057MM  13283.17117134  .00002778  00000-0  78003-3 0  4985
2 27492 098.2679 253.1555 0100460 138.1350 278.5938 14.43785992651887
0 CZ-4 DEB
1 27492U 99057MM  13287.19095059  .00003087  00000-0  86474-3 0  5001
2 27492 098.2679 257.0621 0100632 126.0775 291.9156 14.43803229652462
0 CZ-4 DEB
1 27492U 99057MM  13289.20072037  .00004012  00000-0  11195-2 0  5013
2 27492 098.2684 259.0151 0100697 120.0678 298.0546 14.43819220652756
0 CZ-4 DEB
1 27492U 99057MM  13291.70825351  .00003714  00000-0  10370-2 0  5029
2 27492 098.2694 261.4517 0100744 112.5763 011.5432 14.43834561653112
0 CZ-4 DEB
1 27492U 99057MM  13294.19036147  .00004589  00000-0  12777-2 0  5037
2 27492 098.2700 263.8639 0100793 105.1166 313.0702 14.43849893653473
